NORAD_CAT_ID,OBJECT_NAME,OBJECT_TYPE,EPOCH,MEAN_MOTION,ECCENTRICITY,INCLINATION,RA_OF_ASC_NODE,ARG_OF_PERICENTER,MEAN_ANOMALY,BSTAR,MEAN_MOTION_DOT,MEAN_MOTION_DDOT,TLE_LINE0,TLE_LINE1,TLE_LINE2,SEMIMAJOR_AXIS,PERIOD,APOGEE,PERIGEE,DECAYED
52692.0,STARLINK-3993,PAYLOAD,2023-09-28 22:00:01,15.08864941,0.000144,53.216,191.6643,101.3848,283.5957,-0.0027209,-0.0004336,0.0,0 STARLINK-3993,1 52692U 22053AN  23271.91668981 -.00043360  00000-0 -27209-2 0  9999,2 52692  53.2160 191.6643 0001440 101.3848 283.5957 15.08864941  5759,6917.804,95.436,540.665,538.673,0.0
52692.0,STARLINK-3993,PAYLOAD,2023-09-29 06:00:00,15.08806468,0.0001302,53.2159,190.169,93.3134,303.2201,0.0031907,0.00050811,0.0,0 STARLINK-3993,1 52692U 22053AN  23272.25001157  .00050811  00000-0  31907-2 0  9990,2 52692  53.2159 190.1690 0001302  93.3134 303.2201 15.08806468 76028,6917.983,95.44,540.749,538.947,0.0
52692.0,STARLINK-3993,PAYLOAD,2023-09-29 14:00:01,15.08822879,0.0001262,53.2162,188.6709,104.1329,303.9898,0.0037261,0.00059486,0.0,0 STARLINK-3993,1 52692U 22053AN  23272.58334491  .00059486  00000-0  37261-2 0  9992,2 52692  53.2162 188.6709 0001262 104.1329 303.9898 15.08822879  5493,6917.933,95.439,540.671,538.925,0.0
52692.0,STARLINK-3993,PAYLOAD,2023-09-30 06:00:00,15.08794821,0.0001251,53.2162,185.6798,76.7536,354.625,0.00051421,7.895e-05,0.0,0 STARLINK-3993,1 52692U 22053AN  23273.25001157  .00007895  00000-0  51421-3 0  9999,2 52692  53.2162 185.6798 0001251  76.7536 354.6250 15.08794821 76184,6918.018,95.44,540.749,539.018,0.0
52692.0,STARLINK-3993,PAYLOAD,2023-10-01 00:45:47,15.08834445,0.0001251,53.2166,182.1677,86.4321,273.6814,5.6285e-05,6.08e-06,0.0,0 STARLINK-3993,1 52692U 22053AN  23274.03179464  .00000608  00000-0  56285-4 0  9992,2 52692  53.2166 182.1677 0001251  86.4321 273.6814 15.08834445 76291,6917.897,95.438,540.628,538.897,0.0
52692.0,STARLINK-3993,PAYLOAD,2023-10-01 21:25:47,15.08850416,0.0001249,53.2161,178.3029,82.1118,278.0016,0.00037904,5.751e-05,0.0,0 STARLINK-3993,1 52692U 22053AN  23274.89291172  .00005751  00000-0  37904-3 0  9997,2 52692  53.2161 178.3029 0001249  82.1118 278.0016 15.08850416 76826,6917.849,95.437,540.578,538.85,0.0
52692.0,STARLINK-3993,PAYLOAD,2023-10-02 00:36:33,15.08861157,0.0001239,53.2162,177.7085,79.9203,280.1929,0.00093522,0.00014636,0.0,0 STARLINK-3993,1 52692U 22053AN  23275.02539004  .00014636  00000-0  93522-3 0  9992,2 52692  53.2162 177.7085 0001239  79.9203 280.1929 15.08861157 76449,6917.816,95.436,540.538,538.824,0.0
52692.0,STARLINK-3993,PAYLOAD,2023-10-02 10:08:52,15.08854114,0.0001037,53.2156,175.9247,79.5739,280.537,0.00038098,5.783e-05,0.0,0 STARLINK-3993,1 52692U 22053AN  23275.42282797  .00005783  00000-0  38098-3 0  9990,2 52692  53.2156 175.9247 0001037  79.5739 280.5370 15.08854114 76504,6917.837,95.437,540.42,538.985,0.0
52692.0,STARLINK-3993,PAYLOAD,2023-10-02 21:16:34,15.08833905,0.0001714,53.215,173.8433,104.1916,255.9267,-0.00035047,-5.861e-05,0.0,0 STARLINK-3993,1 52692U 22053AN  23275.88651395 -.00005861  00000-0 -35047-3 0  9994,2 52692  53.2150 173.8433 0001714 104.1916 255.9267 15.08833905 76579,6917.899,95.438,540.95,538.578,0.0
52692.0,STARLINK-3993,PAYLOAD,2023-10-03 02:02:44,15.08848674,0.0001522,53.2155,172.9513,100.1354,259.981,0.00068535,0.00010639,0.0,0 STARLINK-3993,1 52692U 22053AN  23276.08523264  .00010639  00000-0  68535-3 0  9995,2 52692  53.2155 172.9513 0001522 100.1354 259.9810 15.08848674 76603,6917.854,95.437,540.772,538.666,0.0
52692.0,STARLINK-3993,PAYLOAD,2023-10-03 09:59:40,15.08836994,0.0001436,53.2161,171.4634,91.407,268.7086,0.00065815,0.00010201,0.0,0 STARLINK-3993,1 52692U 22053AN  23276.41643653  .00010201  00000-0  65815-3 0  9990,2 52692  53.2161 171.4634 0001436  91.4070 268.7086 15.08836994 76659,6917.89,95.438,540.748,538.761,0.0
52692.0,STARLINK-3993,PAYLOAD,2023-10-03 21:07:22,15.0883226,0.0001227,53.2154,169.3826,101.8798,258.2332,0.00038548,5.851e-05,0.0,0 STARLINK-3993,1 52692U 22053AN  23276.88012038  .00005851  00000-0  38548-3 0  9996,2 52692  53.2154 169.3826 0001227 101.8798 258.2332 15.08832260 76729,6917.904,95.438,540.618,538.92,0.0
52692.0,STARLINK-3993,PAYLOAD,2023-10-03 22:42:45,15.08838969,0.0001428,53.215,169.0856,99.056,261.0594,0.00052684,8.106e-05,0.0,0 STARLINK-3993,1 52692U 22053AN  23276.94636025  .00008106  00000-0  52684-3 0  9994,2 52692  53.2150 169.0856 0001428  99.0560 261.0594 15.08838969 77133,6917.884,95.438,540.736,538.761,0.0
52692.0,STARLINK-3993,PAYLOAD,2023-10-04 03:28:54,15.08854202,0.0001398,53.2148,168.1936,97.8892,262.2258,0.0011391,0.00017894,0.0,0 STARLINK-3993,1 52692U 22053AN  23277.14507810  .00017894  00000-0  11391-2 0  9999,2 52692  53.2148 168.1936 0001398  97.8892 262.2258 15.08854202 76765,6917.837,95.437,540.669,538.735,0.0
52692.0,STARLINK-3993,PAYLOAD,2023-10-04 09:50:27,15.08854022,0.0001546,53.2149,167.0031,85.9115,274.2053,0.0012745,0.00020062,0.0,0 STARLINK-3993,1 52692U 22053AN  23277.41003993  .00020062  00000-0  12745-2 0  9997,2 52692  53.2149 167.0031 0001546  85.9115 274.2053 15.08854022 76802,6917.838,95.437,540.772,538.633,0.0
52692.0,STARLINK-3993,PAYLOAD,2023-10-04 20:58:09,15.08847814,0.0001224,53.214,164.9251,96.6459,263.4672,0.00076373,0.0001189,0.0,0 STARLINK-3993,1 52692U 22053AN  23277.87371758  .00011890  00000-0  76373-3 0  9991,2 52692  53.2140 164.9251 0001224  96.6459 263.4672 15.08847814 77276,6917.857,95.437,540.568,538.875,0.0
52692.0,STARLINK-3993,PAYLOAD,2023-10-05 01:44:18,15.08858419,0.0001464,53.2152,164.0298,93.2351,266.8808,0.00061926,9.586e-05,0.0,0 STARLINK-3993,1 52692U 22053AN  23278.07243333  .00009586  00000-0  61926-3 0  9998,2 52692  53.2152 164.0298 0001464  93.2351 266.8808 15.08858419 76901,6917.824,95.436,540.702,538.676,0.0
52692.0,STARLINK-3993,PAYLOAD,2023-10-05 09:41:14,15.08842117,0.0001672,53.2167,162.5428,79.9537,280.1644,0.00014473,2.016e-05,0.0,0 STARLINK-3993,1 52692U 22053AN  23278.40363858  .00002016  00000-0  14473-3 0  9996,2 52692  53.2167 162.5428 0001672  79.9537 280.1644 15.08842117 76953,6917.874,95.437,540.896,538.582,0.0
52692.0,STARLINK-3993,PAYLOAD,2023-10-05 22:24:19,15.08847941,0.0001403,53.2147,160.1625,120.5733,239.5398,0.00017673,2.526e-05,0.0,0 STARLINK-3993,1 52692U 22053AN  23278.93355402  .00002526  00000-0  17673-3 0  9991,2 52692  53.2147 160.1625 0001403 120.5733 239.5398 15.08847941 77435,6917.856,95.437,540.692,538.751,0.0
52692.0,STARLINK-3993,PAYLOAD,2023-10-06 09:32:01,15.08839861,0.0001261,53.2164,158.081,90.3747,269.7389,3.218e-05,2.24e-06,0.0,0 STARLINK-3993,1 52692U 22053AN  23279.39723836  .00000224  00000-0  32180-4 0  9996,2 52692  53.2164 158.0810 0001261  90.3747 269.7389 15.08839861 77502,6917.881,95.438,540.618,538.873,0.0
52692.0,STARLINK-3993,PAYLOAD,2023-10-06 22:15:06,15.08839524,0.000134,53.2158,155.7021,101.5875,258.5268,2.8731e-05,1.69e-06,0.0,0 STARLINK-3993,1 52692U 22053AN  23279.92716050  .00000169  00000-0  28731-4 0  9990,2 52692  53.2158 155.7021 0001340 101.5875 258.5268 15.08839524 77584,6917.882,95.438,540.674,538.82,0.0
52692.0,STARLINK-3993,PAYLOAD,2023-10-07 09:22:48,15.08837858,0.0001318,53.216,153.6194,101.3684,258.7456,0.00010447,1.375e-05,0.0,0 STARLINK-3993,1 52692U 22053AN  23280.39084310  .00001375  00000-0  10447-3 0  9994,2 52692  53.2160 153.6194 0001318 101.3684 258.7456 15.08837858 77653,6917.887,95.438,540.664,538.84,0.0
52692.0,STARLINK-3993,PAYLOAD,2023-10-07 18:55:07,15.08841778,0.0001344,53.2153,151.8353,98.8962,261.2182,0.00026186,3.882e-05,0.0,0 STARLINK-3993,1 52692U 22053AN  23280.78828377  .00003882  00000-0  26186-3 0  9998,2 52692  53.2153 151.8353 0001344  98.8962 261.2182 15.08841778 77314,6917.875,95.437,540.67,538.81,0.0
52692.0,STARLINK-3993,PAYLOAD,2023-10-07 22:05:54,15.08843815,0.0001329,53.2166,151.243,85.2417,274.8727,0.00030273,4.534e-05,0.0,0 STARLINK-3993,1 52692U 22053AN  23280.92076429  .00004534  00000-0  30273-3 0  9994,2 52692  53.2166 151.2430 0001329  85.2417 274.8727 15.08843815 77731,6917.869,95.437,540.653,538.814,0.0
52692.0,STARLINK-3993,PAYLOAD,2023-10-08 21:56:40,15.08853363,0.0001268,53.2159,146.7817,89.6273,270.4864,0.00039684,6.036e-05,0.0,0 STARLINK-3993,1 52692U 22053AN  23281.91435947  .00006036  00000-0  39684-3 0  9992,2 52692  53.2159 146.7817 0001268  89.6273 270.4864 15.08853363 77880,6917.84,95.437,540.582,538.827,0.0
52692.0,STARLINK-3993,PAYLOAD,2023-10-09 01:07:26,15.08857545,0.0001335,53.216,146.1868,88.722,271.3926,0.00045328,6.937e-05,0.0,0 STARLINK-3993,1 52692U 22053AN  23282.04683756  .00006937  00000-0  45328-3 0  9992,2 52692  53.2160 146.1868 0001335  88.7220 271.3926 15.08857545 77503,6917.827,95.436,540.615,538.768,0.0
52692.0,STARLINK-3993,PAYLOAD,2023-10-09 18:36:41,15.08838917,0.0001685,53.2167,142.9145,101.6906,258.4276,-1.4651e-05,-5.21e-06,0.0,0 STARLINK-3993,1 52692U 22053AN  23282.77548316 -.00000521  00000-0 -14651-4 0  9995,2 52692  53.2167 142.9145 0001685 101.6906 258.4276 15.08838917 77614,6917.884,95.438,540.914,538.583,0.0
52692.0,STARLINK-3993,PAYLOAD,2023-10-09 20:12:04,15.08839397,0.0001589,53.2167,142.6168,100.2983,259.8188,2.3349e-05,8.4e-07,0.0,0 STARLINK-3993,1 52692U 22053AN  23282.84172371  .00000084  00000-0  23349-4 0  9993,2 52692  53.2167 142.6168 0001589 100.2983 259.8188 15.08839397 78025,6917.882,95.438,540.846,538.648,0.0
52692.0,STARLINK-3993,PAYLOAD,2023-10-10 13:41:19,15.08842077,0.0001304,53.2158,139.3485,80.766,279.348,0.0001248,1.699e-05,0.0,0 STARLINK-3993,1 52692U 22053AN  23283.57036408  .00001699  00000-0  12480-3 0  9990,2 52692  53.2158 139.3485 0001304  80.7660 279.3480 15.08842077 78132,6917.874,95.437,540.641,538.837,0.0
52692.0,STARLINK-3993,PAYLOAD,2023-10-10 21:38:14,15.08852622,0.0001307,53.2157,137.8625,81.0167,279.0973,0.00041003,6.246e-05,0.0,0 STARLINK-3993,1 52692U 22053AN  23283.90156050  .00006246  00000-0  41003-3 0  9999,2 52692  53.2157 137.8625 0001307  81.0167 279.0973 15.08852622 78185,6917.842,95.437,540.611,538.803,0.0
